#dP2020  8 23  0  0  0.00000000      97 __u+U IGS14 FIT  IAC
## 2120      0.00000000   900.00000000 59084 0.0000000000000
+  122   C01C02C03C04C05C06C07C08C09C10C11C12C13C14C16C19C20
+        C21C22C23C24C25C26C27C28C29C30C32C33C34C35C36C37C38
+        C39C40C43C44C45C46C60E01E02E03E04E05E07E08E09E11E12
+        E13E14E15E18E19E21E24E25E26E27E30E31E33E36G01G02G03
+        G04G05G06G07G08G09G10G11G12G13G15G16G17G18G19G20G21
+        G22G24G25G26G27G28G29G30G31G32J01J02J03J07R01R02R03
+        R04R05R07R08R09R11R12R13R14R15R16R17R18R19R20R21R22
+        R23R24R26  0  0  0  0  0  0  0  0  0  0  0  0  0  0
++         0  0  0  0  0  0  0  0  0  0  0  0  0  0  0  0  0
++         0  0  0  0  0  0  0  0  0  0  0  0  0  0  0  0  0
++         0  0  0  0  0  0  0  0  0  0  0  0  0  0  0  0  0
++         0  0  0  0  0  0  0  0  0  0  0  0  0  0  0  0  0
++         0  0  0  0  0  0  0  0  0  0  0  0  0  0  0  0  0
++         0  0  0  0  0  0  0  0  0  0  0  0  0  0  0  0  0
++         0  0  0  0  0  0  0  0  0  0  0  0  0  0  0  0  0
++         0  0  0  0  0  0  0  0  0  0  0  0  0  0  0  0  0
%c M  cc GPS ccc cccc cccc cccc cccc ccccc ccccc ccccc ccccc
%c cc cc ccc ccc cccc cccc cccc cccc ccccc ccccc ccccc ccccc
%f  1.2500000  1.025000000  0.00000000000  0.000000000000000
%f  0.0000000  0.000000000  0.00000000000  0.000000000000000
%i    0    0    0    0      0      0      0      0         0
%i    0    0    0    0      0      0      0      0         0
/* INFORMATION & ANALYSIS CENTER (IAC)            FINAL DATA
/* S/V CLOCKS ARE ALIGNED TO GNSS TIME                      
/* G:C1WC2W R:C1PC2P E:C1XC5X C:C2IC6I J:C1CC2S             
/* PCV:IGS14_2118 OL/AL:FES2004  NONE     YN ORB:CoN CLK:CoN
*  2020 08 23  0  0  0.00000000
PC01 -34320.382282  24494.207076     29.869638   -207.377644
PC02   4305.843162  41929.981345   -456.482605    392.493935
PC03 -14787.425907  39451.853923    318.365814    801.893288
PC04 -39588.222262  14447.671089    663.738628   -340.590523
PC05  21916.295879  36007.205772   -753.470289   -107.145585
PC06 -10580.096215  22118.440666 -33857.141847    215.528881
PC07 -23436.560356  31073.417971  15764.910591     52.500581
PC08  -9873.684970  37310.412485  17480.267927   -467.017142
PC09   4119.934038  28546.826300 -30355.925227    761.420587
PC10 -10644.213393  31872.772104  25413.554449   -204.723334
PC11  21132.543626  18114.894328  -2353.959096   -572.808454
PC12   9137.245524  21880.575961  14771.081040    479.144495
PC13  -1217.505124  42115.068532   4014.692409    609.566520
PC14  19027.806920   7775.294745 -18877.819458    864.873652
PC16      0.000000      0.000000      0.000000 999999.999999
PC19 -25009.875622  -1002.157259  12339.593380    519.393260
PC20 -10958.282221 -12733.080081  22289.699357   -837.180679
PC21 -10196.598672  17314.628950 -19340.235467   -668.242399
PC22 -24866.529806  11563.717822  -5071.565926   -764.812937
PC23  15956.326413 -15561.902405  16809.717835   -850.404272
PC24   5646.300617  22846.766225  15015.208898   -738.675726
PC25  15622.965040   4269.027875  22727.439433   -730.785395
PC26  -6095.834555  27243.071447   -601.365957    802.402733
PC27    267.824914 -19141.298984 -20328.389145    386.229918
PC28  16480.997921  -5203.097924 -21913.053007   -179.420446
PC29 -23403.312554 -10807.856561  10674.215004    273.577103
PC30 -16591.693533 -21277.026260  -7160.116608    365.012265
PC32  10093.096851 -17418.399694  19341.688638   -888.265469
PC33  25014.016292    912.853994 -12357.361303   -793.820528
PC34  16880.293191  21192.938573   6636.770715   -871.894709
PC35 -16492.821467   5603.415417  21803.138883   -689.515253
PC36 -15428.560159  -4898.500153 -22697.396855   -909.606974
PC37   7184.469463 -26928.680377   1315.641412   -908.404470
PC38  -9117.313957  38505.132201  14755.480995     96.141227
PC39  -5295.077310  23996.864503 -34253.118536 999999.999999
PC40 -18608.462783  27923.342728  25429.078504 999999.999999
PC43  23378.519566  11159.751116 -10361.162255 999999.999999
PC44     81.136171  19106.722892  20322.152664   -258.618587
PC45 -15799.014092  15675.635746 -16828.545004 999999.999999
PC46  -6036.503987 -22379.103095 -15501.370819    674.534922
PC60      0.000000      0.000000      0.000000 999999.999999
PE01   5207.936095 -24118.423915 -16345.104223   -925.145350
PE02  -5105.793139  24089.454289  16437.042456    156.305297
PE03   3735.154501  17453.245082 -23616.126162   -334.650501
PE04 -23084.427295 -12899.765091  13300.243898   -591.901117
PE05 -18089.827642  11828.176277 -20219.213846   -352.405930
PE07  29167.815308    649.663652   5054.450346   -426.192135
PE08  23370.254317  12557.378216 -13142.656685   6131.290622
PE09 -29130.333166   -429.548758  -5173.220007   5955.126937
PE11 -17851.321926  -2947.472514  23416.755440   4978.685585
PE12 -16550.428097 -22169.224617  10534.236578   5642.670486
PE13  17856.296612   3179.187405 -23393.940632    403.185548
PE14  17760.014619  16944.123688   9026.810642  -1129.487758
PE15  16677.023350  21975.476480 -10734.176559    855.318079
PE18  -8237.810463 -22246.136887 -19543.936145  -1235.118959
PE19  -1214.686542 -17195.694721  24067.475149     59.810115
PE21  18894.917060 -22765.208492   1057.547393   -617.281522
PE24 -21904.758105   7577.379111 -18421.571030   5283.413601
PE25 -18948.291607  22706.564407  -1174.731496   -515.510557
PE26   8455.684132 -17925.030473 -21984.082935   2812.373555
PE27  21908.126475  -8057.796590  18212.151138    150.051626
PE30  11639.645018  11831.146285  24508.886133   3644.513126
PE31 -12030.205509 -11292.988397 -24559.994672   -473.754171
PE33  -5697.511559 -27855.735981  -8230.737647   -463.455372
PE36  -8545.272625  17481.068893  22306.099725    517.288347
PG01 -13976.243631   5295.494337  21690.233980     34.989233
PG02  13747.089904  17083.829653 -14373.016640   -506.014294
PG03 -22840.517414  11554.033071   6813.645308   -277.813698
PG04 -21189.224437   2542.024064 -15824.244211   -127.570120
PG05  16204.445536   5536.508027 -20499.938297    -19.424950
PG06   6077.049362  25510.287488  -4025.009732   -318.422475
PG07  -6806.661699  21610.027351 -13128.830660   -356.156391
PG08 -25368.522283  -5335.344157   6394.900556    -45.388715
PG09 -11040.922016  11780.083790 -21145.237064   -274.600933
PG10   4888.193335 -19172.155000  17685.679430   -434.881536
PG11 -18915.872626  -3338.838971  17724.843147   -185.215227
PG12  23504.867521  -9369.517702   7582.212392     77.062796
PG13      0.000000      0.000000      0.000000 999999.999999
PG15  25770.790970   2589.608692   6385.354389   -208.785309
PG16 -17692.565652  -4502.485321 -19665.131868   -199.219962
PG17   6536.488163  17469.636486  19351.594839    314.997618
PG18   6627.377782 -22228.493239 -12916.862660    275.491057
PG19  13762.193717  17896.583855  13743.352056   -114.877053
PG20  13638.137377 -21412.369572   7298.767341    526.964516
PG21 -11998.322885 -21792.959158  10510.828063     38.733483
PG22 -21838.154104   5941.133384  13984.063156   -761.732735
PG24  15433.115319  -2662.845615  21248.958475    -17.519411
PG25  19815.370837 -17326.993865  -2486.928350     38.898703
PG26  -6490.432840 -14544.866413 -21260.484757    265.988697
PG27 -23077.634171 -12802.900102  -4463.029750   -377.682895
PG28  -4915.700578  18384.239644  19173.675412    686.755980
PG29  14926.694585  -7799.121767 -20594.017463   -178.621069
PG30   -224.483013  26157.957128  -3807.572915   -287.473839
PG31  -6885.095426 -24672.284110  -6086.345924    -63.915314
PG32  -8341.083286 -17387.717101  18415.202930    336.389296
PJ01 -33960.245428  18745.338348 -11777.729582   -186.209186
PJ02 -26311.843726  31405.715346  -5351.064387     -2.693744
PJ03 -26230.688766  22395.971919  29304.873444     -0.617875
PJ07 -25356.134817  33685.552471    -44.892278      0.000342
PR01 -24001.023230   -862.639069   8572.216309     66.443611
PR02 -20686.512606   8260.879004 -12443.630943    442.224473
PR03  -4325.484439  11264.052287 -22440.511083     20.753719
PR04  14314.082494   7598.384163 -19672.503004     60.713792
PR05  24832.192081   -153.486694  -5775.147695     56.280501
PR07   3560.959289 -11259.721397  22638.994485    -39.536879
PR08 -14313.349246  -7748.729449  19697.501037    -54.154703
PR09  12524.974995 -21219.321318   6763.353355    150.428882
PR11  -4838.879437 -14262.755868 -20580.398282    -35.007393
PR12 -12517.464686   2682.346725 -22031.798146    157.663384
PR13 -13403.517678  18726.377679 -10970.543664    -42.815393
PR14  -6488.153265  23679.773894   6899.764574     54.742881
PR15   4142.580591  14894.896248  20314.775630    106.977192
PR16  12767.322050  -3459.661480  21772.508963     -5.596934
PR17   4708.746463  18938.736780  16456.457924    351.877533
PR18  14749.102912  20763.134885    917.088293     46.757055
PR19  16709.176613  12419.803402 -14752.596474   -107.954268
PR20   8684.861529  -5677.218908 -23300.385783   -419.951164
PR21  -5399.172391 -19304.918603 -15757.945124   -146.963228
PR22 -15151.679333 -20575.582193    314.477220    -69.464740
PR23 -15198.172308  -5962.944578  19583.282732    327.066692
PR24  -8560.459306   6680.898250  23092.375273     10.653394
PR26  11815.309855   -971.598733 -22583.340088   -362.098393
EOF
